IXPE                    
1 49954U 21121A   24080.91667824  .00008432  00000+0  64494-3 0  9991
2 49954   0.2301 328.0966 0009886  50.4710 143.3467 14.96914688  5796
